CCSDS_OMM_VERS = 2.0
CREATION_DATE  = 
ORIGINATOR     = 

OBJECT_NAME    = TITAN 4B R/B
OBJECT_ID      = 2000-047B
CENTER_NAME    = EARTH
REF_FRAME      = TEME
TIME_SYSTEM    = UTC
MEAN_ELEMENT_THEORY = SGP/SGP4

EPOCH          = 2025-11-06T17:47:58.377696
MEAN_MOTION    = 15.08381652
ECCENTRICITY   = .0042462
INCLINATION    = 67.9921
RA_OF_ASC_NODE = 25.9275
ARG_OF_PERICENTER = 186.3234
MEAN_ANOMALY   = 173.7385

EPHEMERIS_TYPE = 0
CLASSIFICATION_TYPE = U
NORAD_CAT_ID   = 26474
ELEMENT_SET_NO = 999
REV_AT_EPOCH   = 37436
BSTAR          = .39119E-3
MEAN_MOTION_DOT = .6093E-4
MEAN_MOTION_DDOT = 0

CCSDS_OMM_VERS = 2.0
CREATION_DATE  = 
ORIGINATOR     = 

OBJECT_NAME    = ENVISAT
OBJECT_ID      = 2002-009A
CENTER_NAME    = EARTH
REF_FRAME      = TEME
TIME_SYSTEM    = UTC
MEAN_ELEMENT_THEORY = SGP/SGP4

EPOCH          = 2025-11-06T19:29:25.063296
MEAN_MOTION    = 14.38978479
ECCENTRICITY   = .0001321
INCLINATION    = 98.3539
RA_OF_ASC_NODE = 262.4745
ARG_OF_PERICENTER = 83.8795
MEAN_ANOMALY   = 308.6722

EPHEMERIS_TYPE = 0
CLASSIFICATION_TYPE = U
NORAD_CAT_ID   = 27386
ELEMENT_SET_NO = 999
REV_AT_EPOCH   = 24150
BSTAR          = .83909E-4
MEAN_MOTION_DOT = .216E-5
MEAN_MOTION_DDOT = 0

CCSDS_OMM_VERS = 2.0
CREATION_DATE  = 
ORIGINATOR     = 

OBJECT_NAME    = IDEFIX & ARIANE 42P R/B
OBJECT_ID      = 2002-021B
CENTER_NAME    = EARTH
REF_FRAME      = TEME
TIME_SYSTEM    = UTC
MEAN_ELEMENT_THEORY = SGP/SGP4

EPOCH          = 2025-11-06T18:45:51.415776
MEAN_MOTION    = 14.30909310
ECCENTRICITY   = .0011527
INCLINATION    = 98.5730
RA_OF_ASC_NODE = 245.9502
ARG_OF_PERICENTER = 184.1552
MEAN_ANOMALY   = 175.9537

EPHEMERIS_TYPE = 0
CLASSIFICATION_TYPE = U
NORAD_CAT_ID   = 27422
ELEMENT_SET_NO = 999
REV_AT_EPOCH   = 22644
BSTAR          = .19529E-3
MEAN_MOTION_DOT = .47E-5
MEAN_MOTION_DDOT = 0

CCSDS_OMM_VERS = 2.0
CREATION_DATE  = 
ORIGINATOR     = 

OBJECT_NAME    = AQUA
OBJECT_ID      = 2002-022A
CENTER_NAME    = EARTH
REF_FRAME      = TEME
TIME_SYSTEM    = UTC
MEAN_ELEMENT_THEORY = SGP/SGP4

EPOCH          = 2025-11-06T19:31:07.258080
MEAN_MOTION    = 14.61675351
ECCENTRICITY   = .0001067
INCLINATION    = 98.3982
RA_OF_ASC_NODE = 271.1221
ARG_OF_PERICENTER = 48.6241
MEAN_ANOMALY   = 333.5708

EPHEMERIS_TYPE = 0
CLASSIFICATION_TYPE = U
NORAD_CAT_ID   = 27424
ELEMENT_SET_NO = 999
REV_AT_EPOCH   = 25078
BSTAR          = .3453E-3
MEAN_MOTION_DOT = .167E-4
MEAN_MOTION_DDOT = 0

CCSDS_OMM_VERS = 2.0
CREATION_DATE  = 
ORIGINATOR     = 

OBJECT_NAME    = CZ-4B R/B
OBJECT_ID      = 2002-024C
CENTER_NAME    = EARTH
REF_FRAME      = TEME
TIME_SYSTEM    = UTC
MEAN_ELEMENT_THEORY = SGP/SGP4

EPOCH          = 2025-11-06T14:12:26.297856
MEAN_MOTION    = 14.14516447
ECCENTRICITY   = .0050354
INCLINATION    = 98.9056
RA_OF_ASC_NODE = 359.4801
ARG_OF_PERICENTER = 13.7566
MEAN_ANOMALY   = 154.6418

EPHEMERIS_TYPE = 0
CLASSIFICATION_TYPE = U
NORAD_CAT_ID   = 27432
ELEMENT_SET_NO = 999
REV_AT_EPOCH   = 21183
BSTAR          = .70994E-4
MEAN_MOTION_DOT = .93E-6
MEAN_MOTION_DDOT = 0

CCSDS_OMM_VERS = 2.0
CREATION_DATE  = 
ORIGINATOR     = 

OBJECT_NAME    = MIDORI II (ADEOS-II)
OBJECT_ID      = 2002-056A
CENTER_NAME    = EARTH
REF_FRAME      = TEME
TIME_SYSTEM    = UTC
MEAN_ELEMENT_THEORY = SGP/SGP4

EPOCH          = 2025-11-06T19:12:44.211744
MEAN_MOTION    = 14.29167242
ECCENTRICITY   = .0001588
INCLINATION    = 98.7576
RA_OF_ASC_NODE = 263.5796
ARG_OF_PERICENTER = 42.2794
MEAN_ANOMALY   = 317.8510

EPHEMERIS_TYPE = 0
CLASSIFICATION_TYPE = U
NORAD_CAT_ID   = 27597
ELEMENT_SET_NO = 999
REV_AT_EPOCH   = 19274
BSTAR          = .19282E-3
MEAN_MOTION_DOT = .444E-5
MEAN_MOTION_DDOT = 0

CCSDS_OMM_VERS = 2.0
CREATION_DATE  = 
ORIGINATOR     = 

OBJECT_NAME    = H-2A R/B
OBJECT_ID      = 2002-056E
CENTER_NAME    = EARTH
REF_FRAME      = TEME
TIME_SYSTEM    = UTC
MEAN_ELEMENT_THEORY = SGP/SGP4

EPOCH          = 2025-11-06T19:10:53.152320
MEAN_MOTION    = 14.33636523
ECCENTRICITY   = .007048
INCLINATION    = 98.3010
RA_OF_ASC_NODE = 270.9983
ARG_OF_PERICENTER = 166.8646
MEAN_ANOMALY   = 211.2798

EPHEMERIS_TYPE = 0
CLASSIFICATION_TYPE = U
NORAD_CAT_ID   = 27601
ELEMENT_SET_NO = 999
REV_AT_EPOCH   = 19650
BSTAR          = .16245E-3
MEAN_MOTION_DOT = .422E-5
MEAN_MOTION_DDOT = 0

CCSDS_OMM_VERS = 2.0
CREATION_DATE  = 
ORIGINATOR     = 

OBJECT_NAME    = CZ-4B R/B
OBJECT_ID      = 2003-049C
CENTER_NAME    = EARTH
REF_FRAME      = TEME
TIME_SYSTEM    = UTC
MEAN_ELEMENT_THEORY = SGP/SGP4

EPOCH          = 2025-11-06T11:44:16.835136
MEAN_MOTION    = 14.54856926
ECCENTRICITY   = .0047152
INCLINATION    = 98.6762
RA_OF_ASC_NODE = 295.6886
ARG_OF_PERICENTER = 247.2647
MEAN_ANOMALY   = 112.3561

EPHEMERIS_TYPE = 0
CLASSIFICATION_TYPE = U
NORAD_CAT_ID   = 28059
ELEMENT_SET_NO = 999
REV_AT_EPOCH   = 16868
BSTAR          = .15581E-3
MEAN_MOTION_DOT = .627E-5
MEAN_MOTION_DDOT = 0

CCSDS_OMM_VERS = 2.0
CREATION_DATE  = 
ORIGINATOR     = 

OBJECT_NAME    = CZ-2C R/B
OBJECT_ID      = 2004-012C
CENTER_NAME    = EARTH
REF_FRAME      = TEME
TIME_SYSTEM    = UTC
MEAN_ELEMENT_THEORY = SGP/SGP4

EPOCH          = 2025-11-06T13:09:24.206976
MEAN_MOTION    = 15.52253385
ECCENTRICITY   = .0020004
INCLINATION    = 97.7486
RA_OF_ASC_NODE = 0.2623
ARG_OF_PERICENTER = 46.1610
MEAN_ANOMALY   = 314.1290

EPHEMERIS_TYPE = 0
CLASSIFICATION_TYPE = U
NORAD_CAT_ID   = 28222
ELEMENT_SET_NO = 999
REV_AT_EPOCH   = 18510
BSTAR          = .75712E-3
MEAN_MOTION_DOT = .46443E-3
MEAN_MOTION_DDOT = 0

CCSDS_OMM_VERS = 2.0
CREATION_DATE  = 
ORIGINATOR     = 

OBJECT_NAME    = SL-16 R/B
OBJECT_ID      = 2004-021B
CENTER_NAME    = EARTH
REF_FRAME      = TEME
TIME_SYSTEM    = UTC
MEAN_ELEMENT_THEORY = SGP/SGP4

EPOCH          = 2025-11-06T11:41:08.279232
MEAN_MOTION    = 14.14569565
ECCENTRICITY   = .0006851
INCLINATION    = 70.9970
RA_OF_ASC_NODE = 131.0415
ARG_OF_PERICENTER = 238.1988
MEAN_ANOMALY   = 121.8468

EPHEMERIS_TYPE = 0
CLASSIFICATION_TYPE = U
NORAD_CAT_ID   = 28353
ELEMENT_SET_NO = 999
REV_AT_EPOCH   = 10541
BSTAR          = .22528E-4
MEAN_MOTION_DOT = -.4E-7
MEAN_MOTION_DDOT = 0

CCSDS_OMM_VERS = 2.0
CREATION_DATE  = 
ORIGINATOR     = 

OBJECT_NAME    = CZ-4B R/B
OBJECT_ID      = 2004-035C
CENTER_NAME    = EARTH
REF_FRAME      = TEME
TIME_SYSTEM    = UTC
MEAN_ELEMENT_THEORY = SGP/SGP4

EPOCH          = 2025-11-06T14:01:32.390688
MEAN_MOTION    = 15.26518388
ECCENTRICITY   = .0035257
INCLINATION    = 97.3652
RA_OF_ASC_NODE = 341.4238
ARG_OF_PERICENTER = 47.0685
MEAN_ANOMALY   = 313.3503

EPHEMERIS_TYPE = 0
CLASSIFICATION_TYPE = U
NORAD_CAT_ID   = 28415
ELEMENT_SET_NO = 999
REV_AT_EPOCH   = 16111
BSTAR          = .47152E-3
MEAN_MOTION_DOT = .12473E-3
MEAN_MOTION_DDOT = 0

CCSDS_OMM_VERS = 2.0
CREATION_DATE  = 
ORIGINATOR     = 

OBJECT_NAME    = CZ-2C R/B
OBJECT_ID      = 2004-046B
CENTER_NAME    = EARTH
REF_FRAME      = TEME
TIME_SYSTEM    = UTC
MEAN_ELEMENT_THEORY = SGP/SGP4

EPOCH          = 2025-11-06T18:38:03.347232
MEAN_MOTION    = 14.26916262
ECCENTRICITY   = .0139933
INCLINATION    = 98.1954
RA_OF_ASC_NODE = 228.3963
ARG_OF_PERICENTER = 157.8837
MEAN_ANOMALY   = 202.8463

EPHEMERIS_TYPE = 0
CLASSIFICATION_TYPE = U
NORAD_CAT_ID   = 28480
ELEMENT_SET_NO = 999
REV_AT_EPOCH   = 9097
BSTAR          = .11095E-3
MEAN_MOTION_DOT = .259E-5
MEAN_MOTION_DDOT = 0

