TITAN 4B R/B            
1 26474U 00047B   25310.74164789  .00006093  00000+0  39119-3 0  9994
2 26474  67.9921  25.9275 0042462 186.3234 173.7385 15.08381652374360
ENVISAT                 
1 27386U 02009A   25310.81209564  .00000216  00000+0  83909-4 0  9994
2 27386  98.3539 262.4745 0001321  83.8795 308.6722 14.38978479241502
IDEFIX & ARIANE 42P R/B 
1 27422U 02021B   25310.78184509  .00000470  00000+0  19529-3 0  9994
2 27422  98.5730 245.9502 0011527 184.1552 175.9537 14.30909310226445
AQUA                    
1 27424U 02022A   25310.81327845  .00001670  00000+0  34530-3 0  9995
2 27424  98.3982 271.1221 0001067  48.6241 333.5708 14.61675351250785
CZ-4B R/B               
1 27432U 02024C   25310.59197104  .00000093  00000+0  70994-4 0  9997
2 27432  98.9056 359.4801 0050354  13.7566 154.6418 14.14516447211833
MIDORI II (ADEOS-II)    
1 27597U 02056A   25310.80051171  .00000444  00000+0  19282-3 0  9993
2 27597  98.7576 263.5796 0001588  42.2794 317.8510 14.29167242192748
H-2A R/B                
1 27601U 02056E   25310.79922630  .00000422  00000+0  16245-3 0  9996
2 27601  98.3010 270.9983 0070480 166.8646 211.2798 14.33636523196500
CZ-4B R/B               
1 28059U 03049C   25310.48908374  .00000627  00000+0  15581-3 0  9991
2 28059  98.6762 295.6886 0047152 247.2647 112.3561 14.54856926168687
CZ-2C R/B               
1 28222U 04012C   25310.54819684  .00046443  00000+0  75712-3 0  9994
2 28222  97.7486   0.2623 0020004  46.1610 314.1290 15.52253385185100
SL-16 R/B               
1 28353U 04021B   25310.48690138 -.00000004  00000+0  22528-4 0  9995
2 28353  70.9970 131.0415 0006851 238.1988 121.8468 14.14569565105416
CZ-4B R/B               
1 28415U 04035C   25310.58440267  .00012473  00000+0  47152-3 0  9997
2 28415  97.3652 341.4238 0035257  47.0685 313.3503 15.26518388161116
CZ-2C R/B               
1 28480U 04046B   25310.77642763  .00000259  00000+0  11095-3 0  9993
2 28480  98.1954 228.3963 0139933 157.8837 202.8463 14.26916262 90979
